GSAT0101 (GALILEO-PFM)  
1 37846U 11060A   25245.42171880 -.00000088  00000+0  00000+0 0  9990
2 37846  57.0780 349.5696 0000516  63.3507 296.6791  1.70475807 86211
GSAT0102 (GALILEO-FM2)  
1 37847U 11060B   25241.82783855 -.00000099  00000+0  00000+0 0  9994
2 37847  57.0797 349.6671 0001707 316.4606  43.3186  1.70476027 86152
GSAT0103 (GALILEO-FM3)  
1 38857U 12055A   25257.78006037  .00000010  00000+0  00000+0 0  9995
2 38857  55.6352 109.1093 0002035 294.0717  65.9903  1.70473495 80316
GSAT0201 (GALILEO 5)    
1 40128U 14050A   25257.99471832 -.00000007  00000+0  00000+0 0  9995
2 40128  49.1754 284.6756 1640015 168.8920 195.2462  1.85519472 73210
GSAT0202 (GALILEO 6)    
1 40129U 14050B   25257.71231800 -.00000005  00000+0  00000+0 0  9993
2 40129  49.1914 283.7698 1640330 169.6425 194.2229  1.85520205 75378
GSAT0203 (GALILEO 7)    
1 40544U 15017A   25258.10498436 -.00000105  00000+0  00000+0 0  9993
2 40544  56.8683 349.0982 0004537 247.4798 112.5058  1.70476191 64514
GSAT0204 (GALILEO 8)    
1 40545U 15017B   25257.18702935 -.00000102  00000+0  00000+0 0  9990
2 40545  56.8742 349.1405 0005603 240.3351 119.6443  1.70475649 27549
GSAT0205 (GALILEO 9)    
1 40889U 15045A   25258.12816220  .00000026  00000+0  00000+0 0  9994
2 40889  55.0387 229.2025 0003685  15.7334 344.2519  1.70473035 62327
GSAT0206 (GALILEO 10)   
1 40890U 15045B   25256.58906472  .00000037  00000+0  00000+0 0  9995
2 40890  55.0381 229.2401 0002074 343.4125  16.5547  1.70473100 62324
GSAT0209 (GALILEO 12)   
1 41174U 15079A   25257.93119492  .00000011  00000+0  00000+0 0  9998
2 41174  55.6562 108.8186 0003243   5.2052 354.8815  1.70473872 60083
GSAT0208 (GALILEO 11)   
1 41175U 15079B   25258.15128523  .00000011  00000+0  00000+0 0  9999
2 41175  55.6548 108.8098 0002876  14.5269 345.5650  1.70473767 60508
GSAT0211 (GALILEO 14)   
1 41549U 16030A   25258.27453914  .00000025  00000+0  00000+0 0  9995
2 41549  55.1870 229.2542 0003370 323.7904  36.1605  1.70473127 57980
GSAT0210 (GALILEO 13)   
1 41550U 16030B   25257.94562236  .00000028  00000+0  00000+0 0  9991
2 41550  55.1868 229.2613 0003945 246.4466 113.4863  1.70473461 57975
GSAT0207 (GALILEO 15)   
1 41859U 16069A   25258.22455304  .00000010  00000+0  00000+0 0  9995
2 41859  55.3250 108.7012 0002760 344.8894  15.1860  1.70473831 54715
GSAT0212 (GALILEO 16)   
1 41860U 16069B   25256.90515611  .00000010  00000+0  00000+0 0  9998
2 41860  55.3217 108.7334 0003289  31.3581 328.7449  1.70473980 54941
GSAT0213 (GALILEO 17)   
1 41861U 16069C   25257.85946767  .00000010  00000+0  00000+0 0  9994
2 41861  55.3248 108.7144 0002033 310.4274  49.6379  1.70474331 54820
GSAT0214 (GALILEO 18)   
1 41862U 16069D   25256.24559540  .00000012  00000+0  00000+0 0  9998
2 41862  55.3221 108.7522 0001448 334.1912  25.8867  1.70474019 54925
GSAT0215 (GALILEO 19)   
1 43055U 17079A   25257.32169355  .00000033  00000+0  00000+0 0  9990
2 43055  55.1651 229.0958 0003216 271.4941  88.4437  1.70473848 48285
GSAT0216 (GALILEO 20)   
1 43056U 17079B   25258.19962299  .00000026  00000+0  00000+0 0  9997
2 43056  55.1650 229.0718 0004517 280.7911  79.1318  1.70473977 48316
GSAT0217 (GALILEO 21)   
1 43057U 17079C   25256.66053889  .00000037  00000+0  00000+0 0  9996
2 43057  55.1629 229.1122 0003858 292.6338  67.2994  1.70473914 48279
GSAT0218 (GALILEO 22)   
1 43058U 17079D   25258.05377801  .00000027  00000+0  00000+0 0  9994
2 43058  55.1633 229.0715 0005018 276.8701  83.0469  1.70473909 48323
GSAT0221 (GALILEO 25)   
1 43564U 18060A   25257.37002056 -.00000102  00000+0  00000+0 0  9993
2 43564  57.2495 349.2331 0007557 265.8316  94.1169  1.70475731 44469
GSAT0222 (GALILEO 26)   
1 43565U 18060B   25258.17580783 -.00000105  00000+0  00000+0 0  9994
2 43565  57.2528 349.2143 0004867 237.6630 122.3233  1.70475883 44526
GSAT0219 (GALILEO 23)   
1 43566U 18060C   25250.77147351 -.00000081  00000+0  00000+0 0  9996
2 43566  57.2541 349.4157 0003271 267.2969  92.6999  1.70476091 44374
GSAT0220 (GALILEO 24)   
1 43567U 18060D   25243.95332990 -.00000092  00000+0  00000+0 0  9996
2 43567  57.2560 349.6000 0003180 263.0153  96.9725  1.70476312 44249
GSAT0223 (GALILEO 27)   
1 49809U 21116A   25257.40096031 -.00000102  00000+0  00000+0 0  9997
2 49809  57.2414 349.1283 0003912 203.6679 220.1345  1.70475832 23484
GSAT0224 (GALILEO 28)   
1 49810U 21116B   25254.78680899 -.00000091  00000+0  00000+0 0  9995
2 49810  57.2431 349.1977 0003141 202.1385 169.8731  1.70475929 23460
GSAT0225 (GALILEO 29)   
1 59598U 24079A   25255.37084784  .00000016  00000+0  00000+0 0  9993
2 59598  54.9413 108.8502 0001362 146.0581 216.6244  1.70474018  8583
GSAT0227 (GALILEO 30)   
1 59600U 24079C   25258.48295274  .00000010  00000+0  00000+0 0  9994
2 59600  54.9388 108.7626 0003660  97.7447 262.3809  1.70474158  8681
GSAT0232 (GALILEO 32)   
1 61182U 24167A   25257.11699902  .00000034  00000+0  00000+0 0  9991
2 61182  55.2758 228.8868 0004764 232.8805 203.8655  1.70473321  6174
GSAT0226 (GALILEO 31)   
1 61183U 24167B   25251.52995735  .00000040  00000+0  00000+0 0  9991
2 61183  55.2768 229.0458 0002567 232.2171 128.2671  1.70473508  6055
